{"type": "FeatureCollection", "features": [ {"type": "Feature", "properties": {"norad_id": 38755, "name": "SPOT 6", "group": "resource", "lat": -67.88061335419631, "lon": -153.0699556271987, "alt_km": 705.6061732120506, "timestamp": "2025-12-08T17:43:04.550896+00:00", "meta": {"OBJECT_NAME": "SPOT 6", "OBJECT_ID": "2012-047A", "EPOCH": "2025-12-08T06:41:59.883648", "MEAN_MOTION": 14.58597358, "ECCENTRICITY": 0.00010807, "INCLINATION": 98.1579, "RA_OF_ASC_NODE": 47.1457, "ARG_OF_PERICENTER": 102.4343, "MEAN_ANOMALY": 257.6977, "EPHEMERIS_TYPE": 0, "CLASSIFICATION_TYPE": "U", "NORAD_CAT_ID": 38755, "ELEMENT_SET_NO": 999, "REV_AT_EPOCH": 70522, "BSTAR": 0.00019073011, "MEAN_MOTION_DOT": 8.42e-06, "MEAN_MOTION_DDOT": 0}, "tle": {"line1": "1 38755U 12047A   25342.27916532  .00000842  00000+0  19073-3 0  9999", "line2": "2 38755  98.1579  47.1457 0001080 102.4343 257.6977 14.58597358705227"}}, "geometry": {"type": "Point", "coordinates": [-153.0699556271987, -67.88061335419631]}}, {"type": "Feature", "properties": {"norad_id": 39019, "name": "PLEIADES 1B", "group": "resource", "lat": 30.940768906647072, "lon": -119.60026601323968, "alt_km": 695.7875971014873, "timestamp": "2025-12-08T17:43:04.550908+00:00", "meta": {"OBJECT_NAME": "PLEIADES 1B", "OBJECT_ID": "2012-068A", "EPOCH": "2025-12-08T07:09:36.907776", "MEAN_MOTION": 14.58546877, "ECCENTRICITY": 0.00012182, "INCLINATION": 98.1801, "RA_OF_ASC_NODE": 55.0202, "ARG_OF_PERICENTER": 87.3022, "MEAN_ANOMALY": 272.8317, "EPHEMERIS_TYPE": 0, "CLASSIFICATION_TYPE": "U", "NORAD_CAT_ID": 39019, "ELEMENT_SET_NO": 999, "REV_AT_EPOCH": 69302, "BSTAR": 0.0001972489, "MEAN_MOTION_DOT": 8.71e-06, "MEAN_MOTION_DDOT": 0}, "tle": {"line1": "1 39019U 12068A   25342.29834384  .00000871  00000+0  19725-3 0  9998", "line2": "2 39019  98.1801  55.0202 0001218  87.3022 272.8317 14.58546877693024"}}, "geometry": {"type": "Point", "coordinates": [-119.60026601323968, 30.940768906647072]}}, {"type": "Feature", "properties": {"norad_id": 39030, "name": "GOKTURK 2", "group": "resource", "lat": 55.821672863531276, "lon": 16.066492952207433, "alt_km": 638.3481334291837, "timestamp": "2025-12-08T17:43:04.550918+00:00", "meta": {"OBJECT_NAME": "GOKTURK 2", "OBJECT_ID": "2012-073A", "EPOCH": "2025-12-08T07:23:38.503392", "MEAN_MOTION": 14.75282354, "ECCENTRICITY": 8.971e-05, "INCLINATION": 97.6903, "RA_OF_ASC_NODE": 184.1797, "ARG_OF_PERICENTER": 104.9263, "MEAN_ANOMALY": 255.2046, "EPHEMERIS_TYPE": 0, "CLASSIFICATION_TYPE": "U", "NORAD_CAT_ID": 39030, "ELEMENT_SET_NO": 999, "REV_AT_EPOCH": 69636, "BSTAR": 0.00018972836, "MEAN_MOTION_DOT": 1.237e-05, "MEAN_MOTION_DDOT": 0}, "tle": {"line1": "1 39030U 12073A   25342.30808453  .00001237  00000+0  18973-3 0  9998", "line2": "2 39030  97.6903 184.1797 0000897 104.9263 255.2046 14.75282354696362"}}, "geometry": {"type": "Point", "coordinates": [16.066492952207433, 55.821672863531276]}}, {"type": "Feature", "properties": {"norad_id": 39084, "name": "LANDSAT 8", "group": "resource", "lat": -20.587874037287445, "lon": 53.978589465642266, "alt_km": 707.9682194415036, "timestamp": "2025-12-08T17:43:04.550929+00:00", "meta": {"OBJECT_NAME": "LANDSAT 8", "OBJECT_ID": "2013-008A", "EPOCH": "2025-12-08T06:16:36.164352", "MEAN_MOTION": 14.57107807, "ECCENTRICITY": 0.0001124, "INCLINATION": 98.2077, "RA_OF_ASC_NODE": 50.401, "ARG_OF_PERICENTER": 86.4355, "MEAN_ANOMALY": 273.6972, "EPHEMERIS_TYPE": 0, "CLASSIFICATION_TYPE": "U", "NORAD_CAT_ID": 39084, "ELEMENT_SET_NO": 999, "REV_AT_EPOCH": 67009, "BSTAR": 0.00020221811, "MEAN_MOTION_DOT": 8.66e-06, "MEAN_MOTION_DDOT": 0}, "tle": {"line1": "1 39084U 13008A   25342.26152968  .00000866  00000+0  20222-3 0  9991", "line2": "2 39084  98.2077  50.4010 0001124  86.4355 273.6972 14.57107807670096"}}, "geometry": {"type": "Point", "coordinates": [53.978589465642266, -20.587874037287445]}}, {"type": "Feature", "properties": {"norad_id": 39086, "name": "SARAL", "group": "resource", "lat": -44.21062411757771, "lon": 175.13669653213626, "alt_km": 791.0699368733785, "timestamp": "2025-12-08T17:43:04.550940+00:00", "meta": {"OBJECT_NAME": "SARAL", "OBJECT_ID": "2013-009A", "EPOCH": "2025-12-08T06:11:40.310016", "MEAN_MOTION": 14.3275483, "ECCENTRICITY": 0.00027729, "INCLINATION": 98.5505, "RA_OF_ASC_NODE": 166.247, "ARG_OF_PERICENTER": 117.131, "MEAN_ANOMALY": 243.0157, "EPHEMERIS_TYPE": 0, "CLASSIFICATION_TYPE": "U", "NORAD_CAT_ID": 39086, "ELEMENT_SET_NO": 999, "REV_AT_EPOCH": 66826, "BSTAR": 0.00011641179, "MEAN_MOTION_DOT": 2.73e-06, "MEAN_MOTION_DDOT": 0}, "tle": {"line1": "1 39086U 13009A   25342.25810544  .00000273  00000+0  11641-3 0  9991", "line2": "2 39086  98.5505 166.2470 0002772 117.1310 243.0157 14.32754830668265"}}, "geometry": {"type": "Point", "coordinates": [175.13669653213626, -44.21062411757771]}}, {"type": "Feature", "properties": {"norad_id": 39150, "name": "GAOFEN-1", "group": "resource", "lat": -3.6040256737662153, "lon": -127.03503729560498, "alt_km": 632.6434559686459, "timestamp": "2025-12-08T17:43:04.550950+00:00", "meta": {"OBJECT_NAME": "GAOFEN-1", "OBJECT_ID": "2013-018A", "EPOCH": "2025-12-08T07:07:53.831712", "MEAN_MOTION": 14.76522789, "ECCENTRICITY": 0.0017979, "INCLINATION": 97.9332, "RA_OF_ASC_NODE": 53.0349, "ARG_OF_PERICENTER": 156.9231, "MEAN_ANOMALY": 203.2791, "EPHEMERIS_TYPE": 0, "CLASSIFICATION_TYPE": "U", "NORAD_CAT_ID": 39150, "ELEMENT_SET_NO": 999, "REV_AT_EPOCH": 68007, "BSTAR": 0.00023466521, "MEAN_MOTION_DOT": 1.589e-05, "MEAN_MOTION_DDOT": 0}, "tle": {"line1": "1 39150U 13018A   25342.29715083  .00001589  00000+0  23467-3 0  9999", "line2": "2 39150  97.9332  53.0349 0017979 156.9231 203.2791 14.76522789680073"}}, "geometry": {"type": "Point", "coordinates": [-127.03503729560498, -3.6040256737662153]}}, {"type": "Feature", "properties": {"norad_id": 39160, "name": "VNREDSAT 1", "group": "resource", "lat": 52.14232963763393, "lon": 27.812393911611654, "alt_km": 671.6882758011216, "timestamp": "2025-12-08T17:43:04.550961+00:00", "meta": {"OBJECT_NAME": "VNREDSAT 1", "OBJECT_ID": "2013-021B", "EPOCH": "2025-12-08T06:00:08.492256", "MEAN_MOTION": 14.6491327, "ECCENTRICITY": 0.00013099, "INCLINATION": 97.9379, "RA_OF_ASC_NODE": 37.6823, "ARG_OF_PERICENTER": 82.9818, "MEAN_ANOMALY": 277.1534, "EPHEMERIS_TYPE": 0, "CLASSIFICATION_TYPE": "U", "NORAD_CAT_ID": 39160, "ELEMENT_SET_NO": 999, "REV_AT_EPOCH": 67233, "BSTAR": 0.00026365461, "MEAN_MOTION_DOT": 1.364e-05, "MEAN_MOTION_DDOT": 0}, "tle": {"line1": "1 39160U 13021B   25342.25009829  .00001364  00000+0  26365-3 0  9995", "line2": "2 39160  97.9379  37.6823 0001309  82.9818 277.1534 14.64913270672330"}}, "geometry": {"type": "Point", "coordinates": [27.812393911611654, 52.14232963763393]}}, {"type": "Feature", "properties": {"norad_id": 39227, "name": "ARIRANG-5 (KOMPSAT-5)", "group": "resource", "lat": -75.74366700543975, "lon": -161.1291726326424, "alt_km": 562.4760686103873, "timestamp": "2025-12-08T17:43:04.550971+00:00", "meta": {"OBJECT_NAME": "ARIRANG-5 (KOMPSAT-5)", "OBJECT_ID": "2013-042A", "EPOCH": "2025-12-08T05:17:39.922944", "MEAN_MOTION": 15.04529133, "ECCENTRICITY": 0.00038245, "INCLINATION": 97.6148, "RA_OF_ASC_NODE": 166.5895, "ARG_OF_PERICENTER": 69.7807, "MEAN_ANOMALY": 290.383, "EPHEMERIS_TYPE": 0, "CLASSIFICATION_TYPE": "U", "NORAD_CAT_ID": 39227, "ELEMENT_SET_NO": 999, "REV_AT_EPOCH": 67514, "BSTAR": 0.00019501537, "MEAN_MOTION_DOT": 2.672e-05, "MEAN_MOTION_DDOT": 0}, "tle": {"line1": "1 39227U 13042A   25342.22060096  .00002672  00000+0  19502-3 0  9990", "line2": "2 39227  97.6148 166.5895 0003824  69.7807 290.3830 15.04529133675145"}}, "geometry": {"type": "Point", "coordinates": [-161.1291726326424, -75.74366700543975]}}, {"type": "Feature", "properties": {"norad_id": 39418, "name": "SKYSAT-A", "group": "resource", "lat": -13.159481714060473, "lon": -148.67560619825747, "alt_km": 528.5871018024491, "timestamp": "2025-12-08T17:43:04.550982+00:00", "meta": {"OBJECT_NAME": "SKYSAT-A", "OBJECT_ID": "2013-066C", "EPOCH": "2025-12-08T02:33:54.556416", "MEAN_MOTION": 15.11549632, "ECCENTRICITY": 0.00206357, "INCLINATION": 97.4108, "RA_OF_ASC_NODE": 32.4561, "ARG_OF_PERICENTER": 253.7759, "MEAN_ANOMALY": 106.1201, "EPHEMERIS_TYPE": 0, "CLASSIFICATION_TYPE": "U", "NORAD_CAT_ID": 39418, "ELEMENT_SET_NO": 999, "REV_AT_EPOCH": 65960, "BSTAR": 0.00031260289, "MEAN_MOTION_DOT": 5.263e-05, "MEAN_MOTION_DDOT": 0}, "tle": {"line1": "1 39418U 13066C   25342.10688144  .00005263  00000+0  31260-3 0  9999", "line2": "2 39418  97.4108  32.4561 0020635 253.7759 106.1201 15.11549632659605"}}, "geometry": {"type": "Point", "coordinates": [-148.67560619825747, -13.159481714060473]}}, {"type": "Feature", "properties": {"norad_id": 39419, "name": "DUBAISAT-2", "group": "resource", "lat": 21.976081207462567, "lon": -29.75592755581895, "alt_km": 536.009069049047, "timestamp": "2025-12-08T17:43:04.550993+00:00", "meta": {"OBJECT_NAME": "DUBAISAT-2", "OBJECT_ID": "2013-066D", "EPOCH": "2025-12-08T06:28:28.714656", "MEAN_MOTION": 15.08288281, "ECCENTRICITY": 0.00109948, "INCLINATION": 97.4446, "RA_OF_ASC_NODE": 332.8148, "ARG_OF_PERICENTER": 337.2549, "MEAN_ANOMALY": 22.8191, "EPHEMERIS_TYPE": 0, "CLASSIFICATION_TYPE": "U", "NORAD_CAT_ID": 39419, "ELEMENT_SET_NO": 999, "REV_AT_EPOCH": 65759, "BSTAR": 0.00048025875, "MEAN_MOTION_DOT": 7.398e-05, "MEAN_MOTION_DDOT": 0}, "tle": {"line1": "1 39419U 13066D   25342.26977679  .00007398  00000+0  48026-3 0  9990", "line2": "2 39419  97.4446 332.8148 0010994 337.2549  22.8191 15.08288281657595"}}, "geometry": {"type": "Point", "coordinates": [-29.75592755581895, 21.976081207462567]}}]}